{
    "links": {
        "self": "http://www.neowsapp.com/rest/v1/neo/3827319?api_key=iIulBulltgU6a56xZRHN4H3l9WmuAYTsLGpBGhQ2"
    },
    "id": "3827319",
    "neo_reference_id": "3827319",
    "name": "(2018 RC2)",
    "designation": "2018 RC2",
    "nasa_jpl_url": "http://ssd.jpl.nasa.gov/sbdb.cgi?sstr=3827319",
    "absolute_magnitude_h": 23.1,
    "estimated_diameter": {
        "kilometers": {
            "estimated_diameter_min": 0.063760979,
            "estimated_diameter_max": 0.1425738833
        },
        "meters": {
            "estimated_diameter_min": 63.7609789875,
            "estimated_diameter_max": 142.5738833281
        },
        "miles": {
            "estimated_diameter_min": 0.0396192233,
            "estimated_diameter_max": 0.0885912765
        },
        "feet": {
            "estimated_diameter_min": 209.1895703015,
            "estimated_diameter_max": 467.7620993781
        }
    },
    "is_potentially_hazardous_asteroid": false,
    "close_approach_data": [
        {
            "close_approach_date": "1942-09-03",
            "close_approach_date_full": "1942-Sep-03 23:10",
            "epoch_date_close_approach": -862361400000,
            "relative_velocity": {
                "kilometers_per_second": "23.4568314479",
                "kilometers_per_hour": "84444.5932125682",
                "miles_per_hour": "52470.5862658871"
            },
            "miss_distance": {
                "astronomical": "0.4400238012",
                "lunar": "171.1692586668",
                "kilometers": "65826623.408823444",
                "miles": "40902767.0997297672"
            },
            "orbiting_body": "Earth"
        },
        {
            "close_approach_date": "1989-08-18",
            "close_approach_date_full": "1989-Aug-18 23:52",
            "epoch_date_close_approach": 619487520000,
            "relative_velocity": {
                "kilometers_per_second": "11.3145074213",
                "kilometers_per_hour": "40732.2267165904",
                "miles_per_hour": "25309.4216506503"
            },
            "miss_distance": {
                "astronomical": "0.1212868406",
                "lunar": "47.1805809934",
                "kilometers": "18144253.012789522",
                "miles": "11274316.0251665236"
            },
            "orbiting_body": "Earth"
        },
        {
            "close_approach_date": "2014-02-24",
            "close_approach_date_full": "2014-Feb-24 11:47",
            "epoch_date_close_approach": 1393242420000,
            "relative_velocity": {
                "kilometers_per_second": "18.5756479097",
                "kilometers_per_hour": "66872.3324749409",
                "miles_per_hour": "41551.8668092209"
            },
            "miss_distance": {
                "astronomical": "0.2352571955",
                "lunar": "91.5150490495",
                "kilometers": "35193975.348973585",
                "miles": "21868522.225002073"
            },
            "orbiting_body": "Earth"
        },
        {
            "close_approach_date": "2018-08-18",
            "close_approach_date_full": "2018-Aug-18 23:42",
            "epoch_date_close_approach": 1534635720000,
            "relative_velocity": {
                "kilometers_per_second": "11.0120601815",
                "kilometers_per_hour": "39643.4166534752",
                "miles_per_hour": "24632.8774200441"
            },
            "miss_distance": {
                "astronomical": "0.1272669184",
                "lunar": "49.5068312576",
                "kilometers": "19038859.914103808",
                "miles": "11830198.9770082304"
            },
            "orbiting_body": "Earth"
        }
    ],
    "orbital_data": {
        "orbit_id": "5",
        "orbit_determination_date": "2018-09-19 07:00:22",
        "first_observation_date": "2018-09-07",
        "last_observation_date": "2018-09-17",
        "data_arc_in_days": 10,
        "observations_used": 42,
        "orbit_uncertainty": "8",
        "minimum_orbit_intersection": ".0020364",
        "jupiter_tisserand_invariant": "5.083",
        "epoch_osculation": "2458371.5",
        "eccentricity": ".3394771448402735",
        "semi_major_axis": "1.240225199937788",
        "inclination": "14.89652932426463",
        "ascending_node_longitude": "347.0778361677531",
        "orbital_period": "504.4861573241614",
        "perihelion_distance": ".8191970901039501",
        "perihelion_argument": "252.860969801537",
        "aphelion_distance": "1.661253309771625",
        "perihelion_time": "2458278.843756768968",
        "mean_anomaly": "66.11925238959175",
        "mean_motion": ".7135973797764272",
        "equinox": "J2000",
        "orbit_class": {
            "orbit_class_type": "APO",
            "orbit_class_description": "Near-Earth asteroid orbits which cross the Earth’s orbit similar to that of 1862 Apollo",
            "orbit_class_range": "a (semi-major axis) > 1.0 AU; q (perihelion) < 1.017 AU"
        }
    },
    "is_sentry_object": false
}